format  = 'OEF2.0'       ! file format
rectype = 'ML'           ! record type (1L/ML)
refsys  = ECLM J2000     ! default reference system
END_OF_HEADER
va_000219
! Equinoctial elements: a, e*sin(LP), e*cos(LP), tan(i/2)*sin(LN), tan(i/2)*cos(LN), mean long.
 EQU   1.4597512323806328E+00   0.285859622781249   0.187526251307738   -0.001113623109327   -0.001969822957447  34.9412582239483
 MJD     57291.958166082 TDT
 MAG  22.961  0.150
! Non-grav parameters: model used, actual number in use, dimension
 LSP   0  0    6
! RMS    7.65556E-05   2.84584E-05   1.92970E-05   1.08878E-07   1.43177E-07   2.21481E-03
! EIG   2.03849E-08   2.27827E-08   5.43025E-08   8.15660E-08   9.40887E-07   9.23927E-05
! WEA   0.83232   0.45162   0.30619  -0.00168  -0.00187   0.09762
 COV   5.860754725058381E-09  2.178475177633029E-09  1.477016842280561E-09
 COV  -8.114239194910952E-12 -9.036405731146630E-12  1.695112462290223E-07
 COV   8.098812424431513E-10  5.488849052960611E-10 -3.016965736159005E-12
 COV  -3.359929281259698E-12  6.302640377374807E-08  3.723733299179766E-10
 COV  -2.043979171197416E-12 -2.276162858345783E-12  4.270119604757899E-08
 COV   1.185436249244731E-14  1.327352730756367E-14 -2.348162610500134E-10
 COV   2.049965402305233E-14 -2.615159898799446E-10  4.905364810485322E-06
 NOR   1.407627833473879E+14  1.719332899227808E+14 -3.660493014201513E+14
 NOR   6.574288939250058E+12  6.640534503800739E+11 -3.886510407215371E+12
 NOR   9.664981082569530E+14 -7.225539055769174E+14 -2.688994680782645E+13
 NOR   1.593137990012466E+12 -1.207076540419458E+13  1.053709455116808E+15
 NOR  -4.547684635895586E+12 -2.069605816328258E+12  1.276014868597362E+13
 NOR   1.899595292901096E+15 -2.184656707643067E+14  2.371843787353462E+11
 NOR   1.776506965610321E+14 -2.638752502039093E+10  1.783272751326326E+11
va_000220
! Equinoctial elements: a, e*sin(LP), e*cos(LP), tan(i/2)*sin(LN), tan(i/2)*cos(LN), mean long.
 EQU   1.4597516824756256E+00   0.285859790090552   0.187526364734938   -0.001113623732524   -0.001969823651498  34.9412712432877
 MJD     57291.958166082 TDT
 MAG  22.961  0.150
! Non-grav parameters: model used, actual number in use, dimension
 LSP   0  0    6
! RMS    7.65556E-05   2.84584E-05   1.92970E-05   1.08878E-07   1.43177E-07   2.21481E-03
! EIG   2.03849E-08   2.27828E-08   5.43025E-08   8.15660E-08   9.40887E-07   9.23927E-05
! WEA   0.83232   0.45162   0.30619  -0.00168  -0.00187   0.09762
 COV   5.860763783627605E-09  2.178477193982448E-09  1.477018072158097E-09
 COV  -8.114245161049010E-12 -9.036408720298791E-12  1.695113374582046E-07
 COV   8.098814899287516E-10  5.488850219047091E-10 -3.016966084253350E-12
 COV  -3.359928310102521E-12  6.302639862661221E-08  3.723733746514736E-10
 COV  -2.043979215902808E-12 -2.276161987210280E-12  4.270118856503452E-08
 COV   1.185436229804045E-14  1.327352232314149E-14 -2.348161972537311E-10
 COV   2.049964715592410E-14 -2.615158130851802E-10  4.905362511225766E-06
 NOR   1.407625613702696E+14  1.719331393385219E+14 -3.660490062814421E+14
 NOR   6.574281018314256E+12  6.640524191420150E+11 -3.886508188990809E+12
 NOR   9.664979574652464E+14 -7.225539423728099E+14 -2.688993246450397E+13
 NOR   1.593140018959415E+12 -1.207076688519474E+13  1.053709495606844E+15
 NOR  -4.547677254371246E+12 -2.069605584134963E+12  1.276015224572065E+13
 NOR   1.899593548511496E+15 -2.184655816638361E+14  2.371842620781779E+11
 NOR   1.776505724008612E+14 -2.638754959396281E+10  1.783273491762015E+11
va_000221
! Equinoctial elements: a, e*sin(LP), e*cos(LP), tan(i/2)*sin(LN), tan(i/2)*cos(LN), mean long.
 EQU   1.4597521325943021E+00   0.285859957408563   0.187526478168021   -0.001113624355753   -0.001969824345586  34.9412842633003
 MJD     57291.958166082 TDT
 MAG  22.961  0.150
! Non-grav parameters: model used, actual number in use, dimension
 LSP   0  0    6
! RMS    7.65557E-05   2.84584E-05   1.92970E-05   1.08878E-07   1.43177E-07   2.21480E-03
! EIG   2.03849E-08   2.27828E-08   5.43025E-08   8.15660E-08   9.40887E-07   9.23928E-05
! WEA   0.83232   0.45162   0.30619  -0.00168  -0.00187   0.09762
 COV   5.860772828111525E-09  2.178479204472507E-09  1.477019297944904E-09
 COV  -8.114251104810457E-12 -9.036411682518851E-12  1.695114282005631E-07
 COV   8.098817350052204E-10  5.488851368360074E-10 -3.016966423170087E-12
 COV  -3.359927327978237E-12  6.302639328056734E-08  3.723734182181929E-10
 COV  -2.043979254221550E-12 -2.276161108456565E-12  4.270118094420369E-08
 COV   1.185436206912399E-14  1.327351729770617E-14 -2.348161327007300E-10
 COV   2.049964024304160E-14 -2.615156353896855E-10  4.905360195599545E-06
 NOR   1.407623392691555E+14  1.719329886462476E+14 -3.660487109536292E+14
 NOR   6.574273091045078E+12  6.640513872786521E+11 -3.886505969075299E+12
 NOR   9.664978062859974E+14 -7.225539790153224E+14 -2.688991811295634E+13
 NOR   1.593142048380874E+12 -1.207076836319943E+13  1.053709535966735E+15
 NOR  -4.547669863834059E+12 -2.069605351378139E+12  1.276015580474124E+13
 NOR   1.899591802948650E+15 -2.184654924992445E+14  2.371841453755839E+11
 NOR   1.776504481540630E+14 -2.638757417325217E+10  1.783274232086705E+11
va_000222
! Equinoctial elements: a, e*sin(LP), e*cos(LP), tan(i/2)*sin(LN), tan(i/2)*cos(LN), mean long.
 EQU   1.4597525827522289E+00   0.285860124741056   0.187526591610916   -0.001113624979036   -0.001969825039732  34.9412972844346
 MJD     57291.958166082 TDT
 MAG  22.961  0.150
! Non-grav parameters: model used, actual number in use, dimension
 LSP   0  0    6
! RMS    7.65557E-05   2.84584E-05   1.92970E-05   1.08878E-07   1.43177E-07   2.21480E-03
! EIG   2.03849E-08   2.27828E-08   5.43025E-08   8.15661E-08   9.40888E-07   9.23928E-05
! WEA   0.83232   0.45162   0.30619  -0.00168  -0.00187   0.09762
 COV   5.860781891637328E-09  2.178481221920426E-09  1.477020528436162E-09
 COV  -8.114257074353205E-12 -9.036414673129043E-12  1.695115194785783E-07
 COV   8.098819826239466E-10  5.488852534861796E-10 -3.016966771506661E-12
 COV  -3.359926356226626E-12  6.302638813023467E-08  3.723734629471097E-10
 COV  -2.043979298909167E-12 -2.276160236715929E-12  4.270117345569625E-08
 COV   1.185436187516701E-14  1.327351231079263E-14 -2.348160688728974E-10
 COV   2.049963337295298E-14 -2.615154584926945E-10  4.905357895039700E-06
 NOR   1.407621171492216E+14  1.719328379411857E+14 -3.660484156007232E+14
 NOR   6.574265163101517E+12  6.640503553280887E+11 -3.886503748971018E+12
 NOR   9.664976550943686E+14 -7.225540156615860E+14 -2.688990376019505E+13
 NOR   1.593144077976041E+12 -1.207076984134075E+13  1.053709576331040E+15
 NOR  -4.547662472664416E+12 -2.069605118603778E+12  1.276015936408021E+13
 NOR   1.899590057237413E+15 -2.184654033269770E+14  2.371840286631646E+11
 NOR   1.776503238966550E+14 -2.638759875466251E+10  1.783274972476945E+11
va_000223
! Equinoctial elements: a, e*sin(LP), e*cos(LP), tan(i/2)*sin(LN), tan(i/2)*cos(LN), mean long.
 EQU   1.4597530329649777E+00   0.285860292093823   0.187526705067548   -0.001113625602395   -0.001969825733963  34.9413103071413
 MJD     57291.958166082 TDT
 MAG  22.961  0.150
! Non-grav parameters: model used, actual number in use, dimension
 LSP   0  0    6
! RMS    7.65558E-05   2.84584E-05   1.92970E-05   1.08878E-07   1.43177E-07   2.21480E-03
! EIG   2.03849E-08   2.27828E-08   5.43026E-08   8.15661E-08   9.40888E-07   9.23929E-05
! WEA   0.83232   0.45162   0.30619  -0.00168  -0.00187   0.09762
 COV   5.860790958027742E-09  2.178483240264802E-09  1.477021759519954E-09
 COV  -8.114263047042232E-12 -9.036417666795442E-12  1.695116108182381E-07
 COV   8.098822305139543E-10  5.488853703146481E-10 -3.016967120782773E-12
 COV  -3.359925385356600E-12  6.302638299802705E-08  3.723735077931444E-10
 COV  -2.043979344212804E-12 -2.276159365549850E-12  4.270116597904122E-08
 COV   1.185436168452480E-14  1.327350732699483E-14 -2.348160051070947E-10
 COV   2.049962650618351E-14 -2.615152816520450E-10  4.905355595659520E-06
 NOR   1.407618950027876E+14  1.719326872181620E+14 -3.660481202125260E+14
 NOR   6.574257234210543E+12  6.640493232546157E+11 -3.886501528601550E+12
 NOR   9.664975038852755E+14 -7.225540523129829E+14 -2.688988940572162E+13
 NOR   1.593146107815240E+12 -1.207077131967187E+13  1.053709616701226E+15
 NOR  -4.547655080610459E+12 -2.069604885803825E+12  1.276016292386201E+13
 NOR   1.899588311317525E+15 -2.184653141439272E+14  2.371839119368528E+11
 NOR   1.776501996243197E+14 -2.638762333904374E+10  1.783275712958603E+11
